[{"norad_id":"49108","company":"ONEWEB","tle_line2":"2 49108  87.9116  44.1142 0001519  97.1898 262.9406 13.17649113208308","launch_date":"2021-08-21","type":"LEO","tle_line1":"1 49108U 21075AK  25340.91230159  .00000103  00000+0  23199-3 0  9991","satellite_name":"ONEWEB-0330"},{"norad_id":"49186","company":"ONEWEB","tle_line2":"2 49186  87.8972 358.5418 0001675  97.7011 262.4308 13.13470635205644","launch_date":"2021-09-14","type":"LEO","tle_line1":"1 49186U 21083A   25340.58860539  .00000397  00000+0  10518-2 0  9995","satellite_name":"ONEWEB-0292"},{"norad_id":"49187","company":"ONEWEB","tle_line2":"2 49187  87.9183  13.6661 0001720 100.8842 259.2484 13.18685842204627","launch_date":"2021-09-14","type":"LEO","tle_line1":"1 49187U 21083B   25340.80534939  .00000148  00000+0  34248-3 0  9994","satellite_name":"ONEWEB-0303"},{"norad_id":"49188","company":"ONEWEB","tle_line2":"2 49188  87.9186  13.6828 0001878  88.7004 271.4343 13.18684899204647","launch_date":"2021-09-14","type":"LEO","tle_line1":"1 49188U 21083C   25340.64370094 -.00000008  00000+0 -53212-4 0  9997","satellite_name":"ONEWEB-0306"},{"norad_id":"49189","company":"ONEWEB","tle_line2":"2 49189  87.8969 358.4588 0001756  93.3566 266.7764 13.13470131205696","launch_date":"2021-09-14","type":"LEO","tle_line1":"1 49189U 21083D   25340.96356895  .00000386  00000+0  10214-2 0  9996","satellite_name":"ONEWEB-0307"},{"norad_id":"49190","company":"ONEWEB","tle_line2":"2 49190  87.9180  13.6804 0001789  94.9999 265.1337 13.18684321204622","launch_date":"2021-09-14","type":"LEO","tle_line1":"1 49190U 21083E   25340.80288560  .00000039  00000+0  66387-4 0  9993","satellite_name":"ONEWEB-0320"},{"norad_id":"49191","company":"ONEWEB","tle_line2":"2 49191  87.9194 312.7755 0001976  76.3679 283.7675 13.20770390211458","launch_date":"2021-09-14","type":"LEO","tle_line1":"1 49191U 21083F   25340.93020171 -.00000005  00000+0 -45082-4 0  9994","satellite_name":"ONEWEB-0321"},{"norad_id":"49192","company":"ONEWEB","tle_line2":"2 49192  87.8972 358.4766 0002164  84.3918 275.7458 13.13471212205676","launch_date":"2021-09-14","type":"LEO","tle_line1":"1 49192U 21083G   25340.88316008  .00000413  00000+0  10955-2 0  9996","satellite_name":"ONEWEB-0322"},{"norad_id":"49193","company":"ONEWEB","tle_line2":"2 49193  87.9183  13.6606 0001632  92.1618 267.9701 13.18685419204649","launch_date":"2021-09-14","type":"LEO","tle_line1":"1 49193U 21083H   25340.78884864  .00000036  00000+0  58741-4 0  9994","satellite_name":"ONEWEB-0324"},{"norad_id":"49194","company":"ONEWEB","tle_line2":"2 49194  87.9184  13.6789 0001839  94.8016 265.3327 13.18686389204657","launch_date":"2021-09-14","type":"LEO","tle_line1":"1 49194U 21083J   25340.79215603  .00000086  00000+0  18505-3 0  9993","satellite_name":"ONEWEB-0325"},{"norad_id":"49195","company":"ONEWEB","tle_line2":"2 49195  87.9183  13.6631 0001809 105.4265 254.7067 13.18685013204640","launch_date":"2021-09-14","type":"LEO","tle_line1":"1 49195U 21083K   25340.80713660  .00000113  00000+0  25319-3 0  9994","satellite_name":"ONEWEB-0326"},{"norad_id":"49196","company":"ONEWEB","tle_line2":"2 49196  87.9175  13.6830 0001918 106.3177 253.8166 13.18685400204668","launch_date":"2021-09-14","type":"LEO","tle_line1":"1 49196U 21083L   25340.80685526  .00000099  00000+0  21896-3 0  9993","satellite_name":"ONEWEB-0327"},{"norad_id":"49197","company":"ONEWEB","tle_line2":"2 49197  87.8987 358.4407 0001611  90.8512 269.2802 13.13471301205644","launch_date":"2021-09-14","type":"LEO","tle_line1":"1 49197U 21083M   25340.79681921  .00000136  00000+0  33623-3 0  9990","satellite_name":"ONEWEB-0328"}]